{"fetched_at":"2026-07-10T07:58:48.601Z","source":"https://celestrak.org/NORAD/elements/gp.php?GROUP=stations&FORMAT=JSON","constellation":"tiangong","records":[{"OBJECT_NAME":"CSS (TIANHE)","OBJECT_ID":"2021-035A","EPOCH":"2026-07-09T15:19:07.756608","CLASSIFICATION_TYPE":"U","MEAN_MOTION":15.58017701,"ECCENTRICITY":0.0002646,"INCLINATION":41.4689,"RA_OF_ASC_NODE":185.5127,"ARG_OF_PERICENTER":282.7023,"MEAN_ANOMALY":77.3519,"EPHEMERIS_TYPE":0,"NORAD_CAT_ID":48274,"ELEMENT_SET_NO":999,"REV_AT_EPOCH":29667,"BSTAR":0.000016026,"MEAN_MOTION_DOT":0.00000907,"MEAN_MOTION_DDOT":0}]}
